{
  "type": "FeatureCollection",
  "features": [
    {
      "type": "Feature",
      "properties": {
        "norad_id": 66620,
        "name": "STARLINK-35936",
        "group": "last-30-days",
        "lat": 48.70282584519191,
        "lon": -20.805047086117767,
        "alt_km": 335.21146593650246,
        "timestamp": "2025-12-06T11:28:09.787798+00:00",
        "meta_object_name": "STARLINK-35936",
        "meta_object_id": "2025-271D",
        "meta_epoch": "2025-12-05T22:49:47.881632",
        "meta_mean_motion": 15.76477914,
        "meta_eccentricity": 7.817e-05,
        "meta_inclination": 53.1565,
        "meta_ra_of_asc_node": 220.422,
        "meta_arg_of_pericenter": 112.4849,
        "meta_mean_anomaly": 247.6255,
        "meta_ephemeris_type": 0,
        "meta_classification_type": "U",
        "meta_norad_cat_id": 66620,
        "meta_element_set_no": 999,
        "meta_rev_at_epoch": 314,
        "meta_bstar": -0.003982103,
        "meta_mean_motion_dot": -0.00601506,
        "meta_mean_motion_ddot": 0,
        "tle_line1": "1 66620U 25271D   25339.95124863 -.00601506  00000+0 -39821-2 0  9991",
        "tle_line2": "2 66620  53.1565 220.4220 0000781 112.4849 247.6255 15.76477914  3144"
      },
      "geometry": {
        "type": "Point",
        "coordinates": [
          -20.805047086117767,
          48.70282584519191
        ]
      }
    },
    {
      "type": "Feature",
      "properties": {
        "norad_id": 66621,
        "name": "STARLINK-35847",
        "group": "last-30-days",
        "lat": -6.9648942350720775,
        "lon": 42.88938941586953,
        "alt_km": 340.56525419954323,
        "timestamp": "2025-12-06T11:28:09.787808+00:00",
        "meta_object_name": "STARLINK-35847",
        "meta_object_id": "2025-271E",
        "meta_epoch": "2025-12-04T05:29:14.400096",
        "meta_mean_motion": 15.80119551,
        "meta_eccentricity": 8.3e-05,
        "meta_inclination": 53.1563,
        "meta_ra_of_asc_node": 228.8686,
        "meta_arg_of_pericenter": 162.0892,
        "meta_mean_anomaly": 198.016,
        "meta_ephemeris_type": 0,
        "meta_classification_type": "U",
        "meta_norad_cat_id": 66621,
        "meta_element_set_no": 999,
        "meta_rev_at_epoch": 287,
        "meta_bstar": -0.0041389,
        "meta_mean_motion_dot": -0.00726477,
        "meta_mean_motion_ddot": 0,
        "tle_line1": "1 66621U 25271E   25338.22863889 -.00726477  00000+0 -41389-2 0  9996",
        "tle_line2": "2 66621  53.1563 228.8686 0000830 162.0892 198.0160 15.80119551  2873"
      },
      "geometry": {
        "type": "Point",
        "coordinates": [
          42.88938941586953,
          -6.9648942350720775
        ]
      }
    },
    {
      "type": "Feature",
      "properties": {
        "norad_id": 66622,
        "name": "STARLINK-35950",
        "group": "last-30-days",
        "lat": 43.49896338284271,
        "lon": -7.583833476460923,
        "alt_km": 332.8006428202207,
        "timestamp": "2025-12-06T11:28:09.787818+00:00",
        "meta_object_name": "STARLINK-35950",
        "meta_object_id": "2025-271F",
        "meta_epoch": "2025-12-05T15:11:13.936416",
        "meta_mean_motion": 15.77419464,
        "meta_eccentricity": 0.00025449,
        "meta_inclination": 53.156,
        "meta_ra_of_asc_node": 221.9899,
        "meta_arg_of_pericenter": 142.8267,
        "meta_mean_anomaly": 217.2931,
        "meta_ephemeris_type": 0,
        "meta_classification_type": "U",
        "meta_norad_cat_id": 66622,
        "meta_element_set_no": 999,
        "meta_rev_at_epoch": 309,
        "meta_bstar": -0.0031163207,
        "meta_mean_motion_dot": -0.00497282,
        "meta_mean_motion_ddot": 0,
        "tle_line1": "1 66622U 25271F   25339.63280019 -.00497282  00000+0 -31163-2 0  9999",
        "tle_line2": "2 66622  53.1560 221.9899 0002544 142.8267 217.2931 15.77419464  3094"
      },
      "geometry": {
        "type": "Point",
        "coordinates": [
          -7.583833476460923,
          43.49896338284271
        ]
      }
    },
    {
      "type": "Feature",
      "properties": {
        "norad_id": 66623,
        "name": "STARLINK-35920",
        "group": "last-30-days",
        "lat": 42.86654586652686,
        "lon": -6.3293030195435165,
        "alt_km": 336.93629635314846,
        "timestamp": "2025-12-06T11:28:09.787833+00:00",
        "meta_object_name": "STARLINK-35920",
        "meta_object_id": "2025-271G",
        "meta_epoch": "2025-12-05T22:46:42.789504",
        "meta_mean_motion": 15.76233355,
        "meta_eccentricity": 8.757e-05,
        "meta_inclination": 53.1563,
        "meta_ra_of_asc_node": 220.4071,
        "meta_arg_of_pericenter": 138.4207,
        "meta_mean_anomaly": 221.688,
        "meta_ephemeris_type": 0,
        "meta_classification_type": "U",
        "meta_norad_cat_id": 66623,
        "meta_element_set_no": 999,
        "meta_rev_at_epoch": 314,
        "meta_bstar": -0.0044017431,
        "meta_mean_motion_dot": -0.00653676,
        "meta_mean_motion_ddot": 0,
        "tle_line1": "1 66623U 25271G   25339.94910636 -.00653676  00000+0 -44017-2 0  9992",
        "tle_line2": "2 66623  53.1563 220.4071 0000875 138.4207 221.6880 15.76233355  3144"
      },
      "geometry": {
        "type": "Point",
        "coordinates": [
          -6.3293030195435165,
          42.86654586652686
        ]
      }
    },
    {
      "type": "Feature",
      "properties": {
        "norad_id": 66624,
        "name": "STARLINK-35927",
        "group": "last-30-days",
        "lat": 43.944097105878264,
        "lon": -8.496923438379138,
        "alt_km": 337.8680049965178,
        "timestamp": "2025-12-06T11:28:09.787884+00:00",
        "meta_object_name": "STARLINK-35927",
        "meta_object_id": "2025-271H",
        "meta_epoch": "2025-12-05T22:47:13.395840",
        "meta_mean_motion": 15.76239265,
        "meta_eccentricity": 0.00016911,
        "meta_inclination": 53.1564,
        "meta_ra_of_asc_node": 220.4102,
        "meta_arg_of_pericenter": 340.262,
        "meta_mean_anomaly": 19.8335,
        "meta_ephemeris_type": 0,
        "meta_classification_type": "U",
        "meta_norad_cat_id": 66624,
        "meta_element_set_no": 999,
        "meta_rev_at_epoch": 314,
        "meta_bstar": -0.003858013,
        "meta_mean_motion_dot": -0.00578358,
        "meta_mean_motion_ddot": 0,
        "tle_line1": "1 66624U 25271H   25339.94946060 -.00578358  00000+0 -38580-2 0  9994",
        "tle_line2": "2 66624  53.1564 220.4102 0001691 340.2620  19.8335 15.76239265  3148"
      },
      "geometry": {
        "type": "Point",
        "coordinates": [
          -8.496923438379138,
          43.944097105878264
        ]
      }
    },
    {
      "type": "Feature",
      "properties": {
        "norad_id": 66625,
        "name": "STARLINK-35929",
        "group": "last-30-days",
        "lat": 41.22075559272401,
        "lon": -3.295408815621522,
        "alt_km": 338.06844084194563,
        "timestamp": "2025-12-06T11:28:09.787906+00:00",
        "meta_object_name": "STARLINK-35929",
        "meta_object_id": "2025-271J",
        "meta_epoch": "2025-12-05T19:43:33.596832",
        "meta_mean_motion": 15.76602028,
        "meta_eccentricity": 0.00026668,
        "meta_inclination": 53.1562,
        "meta_ra_of_asc_node": 221.0356,
        "meta_arg_of_pericenter": 349.3283,
        "meta_mean_anomaly": 10.7681,
        "meta_ephemeris_type": 0,
        "meta_classification_type": "U",
        "meta_norad_cat_id": 66625,
        "meta_element_set_no": 999,
        "meta_rev_at_epoch": 312,
        "meta_bstar": -0.0038137738,
        "meta_mean_motion_dot": -0.00581031,
        "meta_mean_motion_ddot": 0,
        "tle_line1": "1 66625U 25271J   25339.82191663 -.00581031  00000+0 -38138-2 0  9994",
        "tle_line2": "2 66625  53.1562 221.0356 0002666 349.3283  10.7681 15.76602028  3126"
      },
      "geometry": {
        "type": "Point",
        "coordinates": [
          -3.295408815621522,
          41.22075559272401
        ]
      }
    },
    {
      "type": "Feature",
      "properties": {
        "norad_id": 66626,
        "name": "STARLINK-35902",
        "group": "last-30-days",
        "lat": 36.380367464809154,
        "lon": 4.222578952590883,
        "alt_km": 331.9146788910921,
        "timestamp": "2025-12-06T11:28:09.787923+00:00",
        "meta_object_name": "STARLINK-35902",
        "meta_object_id": "2025-271K",
        "meta_epoch": "2025-12-05T09:04:09.092928",
        "meta_mean_motion": 15.7806646,
        "meta_eccentricity": 0.00023347,
        "meta_inclination": 53.158,
        "meta_ra_of_asc_node": 223.2443,
        "meta_arg_of_pericenter": 59.6166,
        "meta_mean_anomaly": 300.5086,
        "meta_ephemeris_type": 0,
        "meta_classification_type": "U",
        "meta_norad_cat_id": 66626,
        "meta_element_set_no": 999,
        "meta_rev_at_epoch": 305,
        "meta_bstar": -0.0011865058,
        "meta_mean_motion_dot": -0.00202041,
        "meta_mean_motion_ddot": 0,
        "tle_line1": "1 66626U 25271K   25339.37788302 -.00202041  00000+0 -11865-2 0  9996",
        "tle_line2": "2 66626  53.1580 223.2443 0002334  59.6166 300.5086 15.78066460  3058"
      },
      "geometry": {
        "type": "Point",
        "coordinates": [
          4.222578952590883,
          36.380367464809154
        ]
      }
    }
  ]
}